[{"OBJECT_NAME":"KUIPER-00168","OBJECT_ID":"2025-217V","EPOCH":"2026-03-09T06:15:00.798624","MEAN_MOTION":14.79965894,"ECCENTRICITY":0.00010664,"INCLINATION":51.903,"RA_OF_ASC_NODE":29.9974,"ARG_OF_PERICENTER":89.3671,"MEAN_ANOMALY":270.7414,"EPHEMERIS_TYPE":0,"CLASSIFICATION_TYPE":"U","NORAD_CAT_ID":65781,"ELEMENT_SET_NO":999,"REV_AT_EPOCH":2502,"BSTAR":0.00079707781,"MEAN_MOTION_DOT":5.865e-5,"MEAN_MOTION_DDOT":0},{"OBJECT_NAME":"CZ-6A DEB","OBJECT_ID":"2022-151PC","EPOCH":"2026-03-09T15:45:06.922368","MEAN_MOTION":14.63316875,"ECCENTRICITY":0.00785692,"INCLINATION":98.6173,"RA_OF_ASC_NODE":122.011,"ARG_OF_PERICENTER":249.2962,"MEAN_ANOMALY":109.9804,"EPHEMERIS_TYPE":0,"CLASSIFICATION_TYPE":"U","NORAD_CAT_ID":54626,"ELEMENT_SET_NO":999,"REV_AT_EPOCH":17422,"BSTAR":0.0017543737,"MEAN_MOTION_DOT":9.423e-5,"MEAN_MOTION_DDOT":0}]
